{
  "type": "FeatureCollection",
  "features": [
    {
      "type": "Feature",
      "properties": {
        "name": "hundred-gigabit-ethernet-1/1/20(UPLINK-DM4270-VINHEDO-ROTA-CLICKNET)",
        "styleUrl": "#__managed_style_0DB2E3140A3485EA9E50"
      },
      "geometry": {
        "type": "LineString",
        "coordinates": [
          [-47.17859514621431, -22.89608020917805, 0],
          [-47.17875720917881, -22.89612480413635, 0],
          [-47.17880765169502, -22.89600444941357, 0],
          [-47.1788583473523, -22.89592084077302, 0],
          [-47.17889759442061, -22.89580250796852, 0],
          [-47.17881054514478, -22.89574757020902, 0],
          [-47.17877768315527, -22.89576445676037, 0],
          [-47.17878455329572, -22.89573951467737, 0],
          [-47.17874677792707, -22.89574679915782, 0],
          [-47.1785320398458, -22.89579982793293, 0],
          [-47.17805444583692, -22.89565570044032, 0],
          [-47.17659382252609, -22.89514729134329, 0],
          [-47.17639642353586, -22.89508495827446, 0],
          [-47.17612118940017, -22.89579650886698, 0],
          [-47.17621646958512, -22.89583603990503, 0],
          [-47.17609156985588, -22.89585328248534, 0],
          [-47.17423106562907, -22.90083121134713, 0],
          [-47.17648436744742, -22.90159103705779, 0],
          [-47.17630988609781, -22.90213639671436, 0],
          [-47.17607518824584, -22.90231925447793, 0],
          [-47.17548587610425, -22.90446647201746, 0],
          [-47.1722890643771, -22.9034437936927, 0],
          [-47.17143084808074, -22.90583487136491, 0],
          [-47.1718990695526, -22.90644289539632, 0],
          [-47.17276476476863, -22.90782644714711, 0],
          [-47.17436860064574, -22.90816708175127, 0],
          [-47.17598716260502, -22.90916241440079, 0],
          [-47.17879796627695, -22.90984156353812, 0],
          [-47.17916288364884, -22.90987348236407, 0],
          [-47.1817604567585, -22.9104265635384, 0],
          [-47.18268623971058, -22.90832832157498, 0],
          [-47.18305386839774, -22.90862406320703, 0],
          [-47.18454884582862, -22.9053095194533, 0],
          [-47.18473464718465, -22.90515802110892, 0],
          [-47.19409611819287, -22.90775717813011, 0],
          [-47.19414490587811, -22.90767854835035, 0],
          [-47.1943727923374, -22.90758864913325, 0],
          [-47.19510293970377, -22.90640813879239, 0],
          [-47.19509604000251, -22.90634182607295, 0],
          [-47.19515950210838, -22.90640692756782, 0],
          [-47.19437986311183, -22.90765038341855, 0],
          [-47.19435669217608, -22.90794460555719, 0],
          [-47.19722447472012, -22.91144559159548, 0],
          [-47.19744554457763, -22.91174164836822, 0],
          [-47.19712386293905, -22.91188946534738, 0],
          [-47.19704732686445, -22.91189525821362, 0],
          [-47.19706342496549, -22.91194847151744, 0],
          [-47.19694052961427, -22.91209278850654, 0],
          [-47.19456356716145, -22.91470022655945, 0],
          [-47.19169691714018, -22.9194843420816, 0],
          [-47.19160828408631, -22.91947868603372, 0],
          [-47.19162465368452, -22.91961729939499, 0],
          [-47.18937892258909, -22.92426172410994, 0],
          [-47.18914642723986, -22.92517517960973, 0],
          [-47.18899253384124, -22.92784773220015, 0],
          [-47.18885411104615, -22.92857121870548, 0],
          [-47.18816615849397, -22.93027789415703, 0],
          [-47.1863573239985, -22.93188187285989, 0],
          [-47.18641284811349, -22.93234632437776, 0],
          [-47.18667823205847, -22.93278945953365, 0],
          [-47.1869313717972, -22.93318296718272, 0],
          [-47.18701336795322, -22.93354082894805, 0],
          [-47.18712278314101, -22.93449166600625, 0],
          [-47.18731596231378, -22.93584841938607, 0],
          [-47.18753402939144, -22.93607672092442, 0],
          [-47.18680796807769, -22.93712138477534, 0],
          [-47.18594080681284, -22.93795168483623, 0],
          [-47.18508299132018, -22.93857813136325, 0],
          [-47.18439432487981, -22.9391445606258, 0],
          [-47.18397221631125, -22.9395816448217, 0],
          [-47.1835119906416, -22.94093571946, 0],
          [-47.18349969224374, -22.94103563822618, 0],
          [-47.1834681213359, -22.94098700212953, 0],
          [-47.18358075811015, -22.94067306117115, 0],
          [-47.18345809996711, -22.9405400546873, 0],
          [-47.18313678863685, -22.9404305127536, 0],
          [-47.18315928011246, -22.9406542544358, 0],
          [-47.18293552162905, -22.94117948477691, 0],
          [-47.18274020388024, -22.94146807580968, 0],
          [-47.18251688293456, -22.94164730310177, 0],
          [-47.1821619848023, -22.94178842076567, 0],
          [-47.18174618162646, -22.9418393364962, 0],
          [-47.18067167404426, -22.94210644673342, 0],
          [-47.17988783571499, -22.94230680934393, 0],
          [-47.17807493793808, -22.94273278605666, 0],
          [-47.17678988890263, -22.9427696472396, 0],
          [-47.17528588748507, -22.94250420253124, 0],
          [-47.17358018463584, -22.94202683400108, 0],
          [-47.17355266222577, -22.94225277150067, 0],
          [-47.17293900789178, -22.94212139065817, 0],
          [-47.17267118067612, -22.94321832519535, 0],
          [-47.1733129411035, -22.94337613633724, 0],
          [-47.17306697970701, -22.94488298601702, 0],
          [-47.17299434862292, -22.94520720702122, 0],
          [-47.17285867271731, -22.94538316492204, 0],
          [-47.17248313314411, -22.945712778757, 0],
          [-47.17210219991395, -22.94581010605641, 0],
          [-47.17259885204858, -22.94722948038331, 0],
          [-47.17269963138285, -22.94785269669928, 0],
          [-47.17229048779986, -22.95103131433773, 0],
          [-47.17119156223053, -22.952559317866, 0],
          [-47.17109706714207, -22.95305635537475, 0],
          [-47.17176330074157, -22.95729370119026, 0],
          [-47.17181198955524, -22.95773265825029, 0],
          [-47.17153624395468, -22.95864869669377, 0],
          [-47.17118946742774, -22.95894254220885, 0],
          [-47.17012404577189, -22.95893309729428, 0],
          [-47.16975559241744, -22.95736925041836, 0],
          [-47.16891001813982, -22.95708659782677, 0],
          [-47.16911144358159, -22.9590032959895, 0],
          [-47.16826348525591, -22.95897840696273, 0],
          [-47.16820213010489, -22.95841399854884, 0],
          [-47.16812137430661, -22.95831748249858, 0],
          [-47.16711576710678, -22.95839587770125, 0],
          [-47.16702601153627, -22.95935498692811, 0]
        ]
      }
    }
  ]
}