{
  "type": "FeatureCollection",
  "features": [
    {
      "type": "Feature",
      "properties": {
        "name": "Link Hortolândia - Campinas",
        "host_vinculado": "RT.TESTE NOC",
        "descricao": "Traçado de Fibra entre RT.TESTE NOC e RT.CRONCE-TESTE"
      },
      "geometry": {
        "type": "LineString",
        "coordinates": [
          [-47.209139, -22.875652], [-47.208846, -22.876063], [-47.206412, -22.875236],
          [-47.202020, -22.876852], [-47.201147, -22.876977], [-47.198447, -22.877142],
          [-47.181125, -22.878504], [-47.176445, -22.879822], [-47.157646, -22.884707],
          [-47.157114, -22.885657], [-47.154295, -22.885470], [-47.149112, -22.886133],
          [-47.142143, -22.889366], [-47.133964, -22.893385], [-47.130682, -22.893681],
          [-47.128566, -22.893099], [-47.126419, -22.892954], [-47.125087, -22.893577],
          [-47.123790, -22.895312], [-47.121334, -22.897293], [-47.118661, -22.899027],
          [-47.115362, -22.899466], [-47.113360, -22.899272], [-47.112440, -22.898170],
          [-47.111140, -22.896884], [-47.109799, -22.896061], [-47.097442, -22.890133],
          [-47.072603, -22.875052], [-47.062992, -22.872356], [-47.055894, -22.874242],
          [-47.049129, -22.873437], [-47.045405, -22.871702], [-47.044322, -22.866687],
          [-47.044311, -22.861227], [-47.044649, -22.856861], [-47.044603, -22.856493],
          [-47.044593, -22.856361], [-47.045368, -22.856157], [-47.045906, -22.856263],
          [-47.046201, -22.856681]
        ]
      }
    }
  ]
}