{
  "type": "FeatureCollection",
  "features": [
    {
      "type": "Feature",
      "id": "net.if.status[ifOperStatus.68190210]",
      "properties": {
        "name": "Link Campinas-Hortolândia",
        "description": "Backbone Principal - Traçado Corrigido"
      },
      "geometry": {
        "type": "LineString",
        "coordinates": [
          [-47.17659200857381, -22.89007167831266], [-47.17664911530559, -22.89011912664774], [-47.17657558882951, -22.89024398596201], [-47.17664968310812, -22.8903538460061], [-47.17503752192073, -22.89099010393513], [-47.17394028886382, -22.891269315506], [-47.17348577814064, -22.89135821963914], [-47.1723215678423, -22.8914538942083], [-47.17208974393511, -22.8914793125102], [-47.17095964116005, -22.8914362214107], [-47.16943596981485, -22.89122656830564], [-47.1683618731772, -22.89095941865147], [-47.16740340684578, -22.89062837412681], [-47.16644245014184, -22.89020556077261], [-47.16581635682753, -22.88986586702551], [-47.16507167040874, -22.88937641940307], [-47.16421887918381, -22.88877338572896], [-47.16268858866245, -22.88770385810419], [-47.16057011950922, -22.88626498800183], [-47.15983080724381, -22.88579158612878], [-47.1583915040097, -22.88526979517033], [-47.15835609268125, -22.88514872663914], [-47.15823427537025, -22.88523162323876], [-47.15698482565415, -22.88485517208534], [-47.15694373922282, -22.88475418717126], [-47.15685892794949, -22.88483133472415], [-47.15603493000616, -22.88466408434692], [-47.15417797663623, -22.88451854132836], [-47.15307365159426, -22.88456161886697], [-47.1496805281973, -22.88523052797062], [-47.14569460386743, -22.88599649329064], [-47.143238224494, -22.88646276971079], [-47.14092390097478, -22.88692291638933], [-47.13940639177042, -22.887404738961], [-47.13742045845434, -22.88841539374018], [-47.13402870063378, -22.89043041150707], [-47.13384253516422, -22.89041719716052], [-47.13387070633787, -22.8905627705611], [-47.13311315492801, -22.89096692868154], [-47.13298265832055, -22.89089894241051], [-47.13299218436575, -22.89103225519852], [-47.13160764560967, -22.89172382527988], [-47.12951819200303, -22.89295103252977], [-47.12822760013177, -22.89268989695107], [-47.12717310330555, -22.89264814062649], [-47.12645368494629, -22.89278256707406], [-47.12582616277568, -22.89227783485354], [-47.12501398689595, -22.89297429411666], [-47.12493419865598, -22.89290757770915], [-47.12499911657982, -22.89307098787481], [-47.12491035626066, -22.89314426209368], [-47.12374739288406, -22.89242036468381], [-47.12342412816874, -22.89227151595528], [-47.12373902545547, -22.88951985887121], [-47.12429377243023, -22.88865999723916], [-47.12578522617044, -22.88796209481976], [-47.12925051411139, -22.88746808884898], [-47.12994845472334, -22.88756327419926], [-47.12466539462033, -22.87948959190525], [-47.12412320445043, -22.87961678401043], [-47.12444698589486, -22.88022189770041], [-47.12365321865479, -22.88012044180073], [-47.1224996792584, -22.88031088750216], [-47.12207252008345, -22.88101210605817], [-47.12156958897382, -22.8820747595547], [-47.12019473406787, -22.88149647422688], [-47.11847343495042, -22.88065182167977], [-47.11820585099183, -22.88051427555912], [-47.11816923962905, -22.88043038808703], [-47.11834283844139, -22.88020609498368], [-47.11862096352489, -22.88016298334365], [-47.11786903578745, -22.87961533536514], [-47.11774161973406, -22.87962994359925], [-47.11607910307018, -22.88190595583627], [-47.11521231014815, -22.88313286708644], [-47.11437011938028, -22.88425510776809], [-47.11309399065685, -22.88711825380483], [-47.112964