<?xml version="1.0" encoding="UTF-8"?>
<kml xmlns="http://www.opengis.net/kml/2.2" xmlns:gx="http://www.google.com/kml/ext/2.2" xmlns:kml="http://www.opengis.net/kml/2.2" xmlns:atom="http://www.w3.org/2005/Atom">
<Document id="1Vmoz99YTL0iP8sBsql2BU65BShdF8Qnw">
	<name>UPLINK-DM4380-CAMPO-GRANDE</name>
	<gx:CascadingStyle kml:id="__managed_style_296F14FEF63E135B1768">
		<Style>
			<IconStyle>
				<scale>1.2</scale>
				<Icon>
					<href>https://earth.google.com/earth/document/icon?color=1976d2&amp;id=2000&amp;scale=4</href>
				</Icon>
				<hotSpot x="64" y="128" xunits="pixels" yunits="insetPixels"/>
			</IconStyle>
			<LabelStyle>
			</LabelStyle>
			<LineStyle>
				<color>ff3c8e38</color>
				<width>12</width>
			</LineStyle>
			<PolyStyle>
				<color>40ffffff</color>
			</PolyStyle>
			<BalloonStyle>
			</BalloonStyle>
		</Style>
	</gx:CascadingStyle>
	<gx:CascadingStyle kml:id="__managed_style_109179F13F3E135B1768">
		<Style>
			<IconStyle>
				<Icon>
					<href>https://earth.google.com/earth/document/icon?color=1976d2&amp;id=2000&amp;scale=4</href>
				</Icon>
				<hotSpot x="64" y="128" xunits="pixels" yunits="insetPixels"/>
			</IconStyle>
			<LabelStyle>
			</LabelStyle>
			<LineStyle>
				<color>ff3c8e38</color>
				<width>8</width>
			</LineStyle>
			<PolyStyle>
				<color>40ffffff</color>
			</PolyStyle>
			<BalloonStyle>
			</BalloonStyle>
		</Style>
	</gx:CascadingStyle>
	<StyleMap id="__managed_style_0790DFAAAA3E135B1768">
		<Pair>
			<key>normal</key>
			<styleUrl>#__managed_style_109179F13F3E135B1768</styleUrl>
		</Pair>
		<Pair>
			<key>highlight</key>
			<styleUrl>#__managed_style_296F14FEF63E135B1768</styleUrl>
		</Pair>
	</StyleMap>
	<Placemark id="UPLINK-DM4380-CAMPO-GRANDE">
		<name>UPLINK-DM4380-CAMPO-GRANDE</name>
		<LookAt>
			<longitude>-47.18798735405063</longitude>
			<latitude>-22.95120970859448</latitude>
			<altitude>614.64696062182</altitude>
			<heading>355.5633808872541</heading>
			<tilt>0</tilt>
			<gx:fovy>35</gx:fovy>
			<range>1418.576995720505</range>
			<altitudeMode>absolute</altitudeMode>
		</LookAt>
		<styleUrl>#__managed_style_0790DFAAAA3E135B1768</styleUrl>
		<LineString>
			<coordinates>
				-47.3021267239866,-22.94572892684533,0 -47.30212188204472,-22.94590066695226,0 -47.30199951963171,-22.94589573761811,0 -47.30195211163402,-22.9462084419873,0 -47.30197919361104,-22.94637980348462,0 -47.30174221486965,-22.94774192013656,0 -47.30214866464061,-22.94792830392517,0 -47.30069774742006,-22.94773661146914,0 -47.30001060607716,-22.94774739213795,0 -47.29957825423181,-22.94763837966172,0 -47.29928265083795,-22.94762287227875,0 -47.29905503458703,-22.94773765401025,0 -47.29888126670875,-22.94782576344727,0 -47.29809130497195,-22.94789367154291,0 -47.29744477201948,-22.94790636160353,0 -47.29531999967197,-22.94765966112866,0 -47.29406531007441,-22.94732776096883,0 -47.29233800961127,-22.94676294368439,0 -47.29137938281769,-22.94639269227008,0 -47.29053662545269,-22.94605407065701,0 -47.29023157977083,-22.94593687096077,0 -47.29041975883307,-22.94568177018158,0 -47.29041429428973,-22.94562848976853,0 -47.29035344782863,-22.94564935848331,0 -47.29015217234545,-22.94593642404332,0 -47.29088081384543,-22.94624350112952,0 -47.29068907925178,-22.94662805731844,0 -47.28977578722822,-22.94626651157492,0 -47.28951441974071,-22.94609333184924,0 -47.28921024405179,-22.94599253914897,0 -47.28844969907954,-22.94572466765686,0 -47.28754334112011,-22.94552163901375,0 -47.2859901993987,-22.94544493814138,0 -47.28488121401022,-22.94541054065745,0 -47.28491846330385,-22.94501416062961,0 -47.28355930780985,-22.94496875111049,0 -47.28146502291052,-22.94487674561949,0 -47.27768854444389,-22.94475525410192,0 -47.27742507125651,-22.94424710178396,0 -47.27577139070885,-22.94233746794739,0 -47.274962410975,-22.9410382727534,0 -47.27485417523423,-22.94037961875459,0 -47.27480693905283,-22.9401040569017,0 -47.27449515199078,-22.94027292025604,0 -47.27102713987789,-22.93941934052289,0 -47.27093262789418,-22.93963632292843,0 -47.27134992190104,-22.93807083962801,0 -47.26983160833659,-22.93768120893578,0 -47.26965566453554,-22.93683218946721,0 -47.26952639085142,-22.93628979019116,0 -47.27058237895326,-22.93532451249408,0 -47.26521818791573,-22.93047110086693,0 -47.26503442262005,-22.93190743979013,0 -47.26448817156402,-22.93248653988653,0 -47.26391563977472,-22.93395653584588,0 -47.25929441221271,-22.93217214379029,0 -47.2577884973269,-22.93565886630482,0 -47.25786194710219,-22.93618997977051,0 -47.25737435529178,-22.93671668921639,0 -47.25719746323632,-22.9371083892993,0 -47.25710531125726,-22.93723245174834,0 -47.25709572474111,-22.93710359711274,0 -47.25737159357769,-22.9363940974729,0 -47.257260854434,-22.93599550423307,0 -47.25694444895262,-22.93619470011045,0 -47.25647871604485,-22.93716167369617,0 -47.2562579612182,-22.93728924287422,0 -47.25478914938049,-22.93727709525958,0 -47.25402635392124,-22.93760017807423,0 -47.25373179023386,-22.93766520800576,0 -47.25183097584992,-22.9369350861583,0 -47.24797670726498,-22.9357123875649,0 -47.24645941380068,-22.93560885719925,0 -47.24540222081711,-22.9356934723175,0 -47.2448350045382,-22.93518259942273,0 -47.24372055624045,-22.93319702832934,0 -47.24338056671605,-22.93059687872157,0 -47.24342925391846,-22.92864675524709,0 -47.24375180936464,-22.92562573310052,0 -47.24379280897514,-22.92489735472824,0 -47.24433659556141,-22.92505761067368,0 -47.24492734588409,-22.9246721663116,0 -47.24504575390993,-22.92423478722914,0 -47.24627790856416,-22.92432990243178,0 -47.24613276685887,-22.92639564061997,0 -47.24675478889219,-22.92642310741692,0 -47.24685742564669,-22.92542789281575,0 -47.24772277255624,-22.92549136898855,0 -47.24827446107373,-22.92570668210153,0 -47.24817685992746,-22.92729904025486,0 -47.25177099336005,-22.92637382765781,0 -47.25141507780688,-22.92577046140118,0 -47.25247455297141,-22.92513598883924,0 -47.25147326398614,-22.92301687656239,0 -47.24843057943474,-22.91971586011587,0 -47.24791288040974,-22.91908182682797,0 -47.24749768107468,-22.91815793041403,0 -47.24134001702737,-22.91825193879819,0 -47.24072566931417,-22.9183334908259,0 -47.24042798872474,-22.91681483479727,0 -47.23860057556646,-22.91617912024872,0 -47.23939111443427,-22.91407147729331,0 -47.24017334328711,-22.91421025080516,0 -47.24037846389918,-22.91365889276013,0 -47.2392020903856,-22.91335592575072,0 -47.23938648201517,-22.91332495947847,0 -47.24132032137074,-22.91384844963882,0 -47.24182225892621,-22.91226829590268,0 -47.24025517579013,-22.91176142915863,0 -47.23865019992138,-22.9110137326656,0 -47.23767953747058,-22.91041546960783,0 -47.23768755359966,-22.90975084267994,0 -47.2373876952228,-22.90951578990252,0 -47.23719377945544,-22.90948549277536,0 -47.23721649313651,-22.90737012428603,0 -47.23112766886623,-22.90456445879431,0 -47.23070348605881,-22.90476397384105,0 -47.230338092392,-22.90511505348756,0 -47.22985306286626,-22.90496529479436,0 -47.22934312403536,-22.90394373212425,0 -47.22913247614509,-22.90358474129856,0 -47.22724362272012,-22.90273105124835,0 -47.22629468238844,-22.90276062966794,0 -47.2249754581409,-22.90336899913104,0 -47.21660484448594,-22.90821589229232,0 -47.21614383245392,-22.90857896603027,0 -47.21569984441035,-22.90902408509047,0 -47.21433717630772,-22.90940644869918,0 -47.21443090586209,-22.90990455918377,0 -47.21402180199765,-22.9101155170057,0 -47.21372918577399,-22.91029539534041,0 -47.21022946214839,-22.90829160143078,0 -47.21044793377714,-22.90797275945985,0 -47.21046886150842,-22.90778638006093,0 -47.21029810957403,-22.90795556962859,0 -47.20979954573672,-22.90874768289753,0 -47.20715985953915,-22.91263858668894,0 -47.20553102747756,-22.91237929527925,0 -47.20407899837409,-22.91205967147885,0 -47.20321498211787,-22.91198288290897,0 -47.20167129692857,-22.91207638989009,0 -47.20024217868716,-22.91203805575106,0 -47.19950249451274,-22.91180998391282,0 -47.19901050555644,-22.91139744274024,0 -47.1985853222997,-22.91140967862107,0 -47.19761751851866,-22.91163183163733,0 -47.1971063964622,-22.91195726507515,0 -47.19443292085085,-22.91498400387175,0 -47.19148104330336,-22.91992263782445,0 -47.19016042963898,-22.92266126232941,0 -47.18918620729166,-22.92472869037263,0 -47.18895746181924,-22.9281830803303,0 -47.18859041300777,-22.92934269598496,0 -47.18809280923552,-22.93038803078526,0 -47.18699252104674,-22.93143243672522,0 -47.18649155503227,-22.93193600161664,0 -47.18645106987501,-22.93226630640567,0 -47.18698530646036,-22.93329888990382,0 -47.18725992054232,-22.93527177866387,0 -47.18741357686157,-22.93610216997702,0 -47.18691568110499,-22.93692778700106,0 -47.18580990058791,-22.93810698062548,0 -47.18470935631913,-22.93877307117202,0 -47.18385546784412,-22.93981888484361,0 -47.18340865809819,-22.94108654697984,0 -47.18313311860128,-22.94170928088202,0 -47.18754307180161,-22.94297429539818,0 -47.18776171975275,-22.94365237675125,0 -47.18914852052711,-22.94406248860297,0 -47.18850776200217,-22.9442751963435,0 -47.18787268576397,-22.94425154353414,0 -47.18810321104313,-22.94462334788384,0 -47.18889049202705,-22.94458428105163,0 -47.18892634571672,-22.94688186595754,0 -47.18687899250979,-22.94697225714663,0 -47.18683578473505,-22.94715879670452,0 -47.18693876833578,-22.94759236333273,0 -47.18701461387833,-22.94788301135932,0 -47.1861127190888,-22.9479585124331,0 -47.18582168281375,-22.94811268232895,0 -47.18608448682208,-22.9500093022621,0 -47.18536083926099,-22.95103535137662,0 -47.18432310322252,-22.95030118288841,0 -47.18325734394895,-22.95172256618836,0 -47.1826081798019,-22.95314173567996,0 -47.18475155915867,-22.95349212515449,0 -47.18496536583952,-22.95353466119481,0 -47.18490418451132,-22.95373479418188,0 
			</coordinates>
		</LineString>
	</Placemark>
</Document>
</kml>
